[{"OBJECT_NAME":"STARLINK-5311","OBJECT_ID":"2023-010V","EPOCH":"2026-03-09T23:37:12.408096","MEAN_MOTION":14.98345855,"ECCENTRICITY":0.00028196,"INCLINATION":70.0071,"RA_OF_ASC_NODE":23.7081,"ARG_OF_PERICENTER":254.1785,"MEAN_ANOMALY":105.9063,"EPHEMERIS_TYPE":0,"CLASSIFICATION_TYPE":"U","NORAD_CAT_ID":55288,"ELEMENT_SET_NO":999,"REV_AT_EPOCH":17331,"BSTAR":0.00096810895,"MEAN_MOTION_DOT":0.00011482,"MEAN_MOTION_DDOT":0},{"OBJECT_NAME":"KUIPER-00232","OBJECT_ID":"2025-301R","EPOCH":"2026-03-09T22:00:01.999584","MEAN_MOTION":15.06812029,"ECCENTRICITY":0.0002965,"INCLINATION":51.8873,"RA_OF_ASC_NODE":65.5535,"ARG_OF_PERICENTER":139.5556,"MEAN_ANOMALY":115.4886,"EPHEMERIS_TYPE":0,"CLASSIFICATION_TYPE":"U","NORAD_CAT_ID":67148,"ELEMENT_SET_NO":999,"REV_AT_EPOCH":493,"BSTAR":-0.072865786,"MEAN_MOTION_DOT":-0.01020247,"MEAN_MOTION_DDOT":0}]
